<?xml version="1.0" encoding="UTF-8"?>
<gpx xmlns="http://www.topografix.com/GPX/1/1" version="1.1" creator="FME(R) 2022.2.6.0">
	<metadata>
		<time>2024-02-23T13:21:34+01:00</time>
		<bounds minlat="38.625188513084012" minlon="-0.5617413469499728" maxlat="38.709199867182569" maxlon="-0.4609639806500252"/>
	</metadata>
	<trk>
		<name>VV de Alcoi</name>
		<cmt>21.77 km</cmt>
		<desc>Vías Verdes</desc>
		<src>Fundación de los Ferrocarriles Españoles (FFE)</src>
		<trkseg>
			<trkpt lat="38.709199867182569" lon="-0.4706550535457927">
				<ele>561.84780000000319</ele>
			</trkpt>
			<trkpt lat="38.708705914745188" lon="-0.4720409456200692">
				<ele>560.88370000000577</ele>
			</trkpt>
			<trkpt lat="38.708385164008206" lon="-0.4729557710407761">
				<ele>560.96829999999318</ele>
			</trkpt>
			<trkpt lat="38.707975102400376" lon="-0.4741463855419475">
				<ele>561.86040000000503</ele>
			</trkpt>
			<trkpt lat="38.708188892747856" lon="-0.474253506046297">
				<ele>562.011599999998</ele>
			</trkpt>
			<trkpt lat="38.70789939917352" lon="-0.4751184938334011">
				<ele>558.82889999999315</ele>
			</trkpt>
			<trkpt lat="38.70778746068023" lon="-0.4753690591189661">
				<ele>562.36879999999655</ele>
			</trkpt>
			<trkpt lat="38.707708137306348" lon="-0.4755422866450837">
				<ele>563.15649999999732</ele>
			</trkpt>
			<trkpt lat="38.70754099489254" lon="-0.4757969069258466">
				<ele>570.89299999999639</ele>
			</trkpt>
			<trkpt lat="38.707338380764448" lon="-0.4761177734672278">
				<ele>575.47909999999683</ele>
			</trkpt>
			<trkpt lat="38.707101230459429" lon="-0.4764975946440874">
				<ele>575.69580000000133</ele>
			</trkpt>
			<trkpt lat="38.706945758352248" lon="-0.4766973871498044">
				<ele>576.42290000000503</ele>
			</trkpt>
			<trkpt lat="38.706688274741012" lon="-0.4770225260786811">
				<ele>577.55329999999958</ele>
			</trkpt>
			<trkpt lat="38.70626584667869" lon="-0.4775089620083909">
				<ele>580.67359999999462</ele>
			</trkpt>
			<trkpt lat="38.705955549735386" lon="-0.4778353010864898">
				<ele>586.8524999999936</ele>
			</trkpt>
			<trkpt lat="38.705784541328342" lon="-0.4780778902306599">
				<ele>583.045100000003</ele>
			</trkpt>
			<trkpt lat="38.705275036283055" lon="-0.4786468202495564">
				<ele>578.09759999999369</ele>
			</trkpt>
			<trkpt lat="38.7049390277882" lon="-0.4789837872957819">
				<ele>581.58879999999772</ele>
			</trkpt>
			<trkpt lat="38.704713357945906" lon="-0.4792019979597545">
				<ele>582.92750000000524</ele>
			</trkpt>
			<trkpt lat="38.70418313259249" lon="-0.4798008445725542">
				<ele>578.54679999999644</ele>
			</trkpt>
			<trkpt lat="38.703987866996748" lon="-0.4800140893496388">
				<ele>578.34100000000035</ele>
			</trkpt>
			<trkpt lat="38.703699703103602" lon="-0.4803766215505609">
				<ele>575.0798000000068</ele>
			</trkpt>
			<trkpt lat="38.703389562572596" lon="-0.4809229427703754">
				<ele>574.55770000000484</ele>
			</trkpt>
			<trkpt lat="38.703324526422954" lon="-0.4808784977233818">
				<ele>573.82589999999618</ele>
			</trkpt>
			<trkpt lat="38.703289257093253" lon="-0.4809321837396834">
				<ele>574.39659999999276</ele>
			</trkpt>
			<trkpt lat="38.702640264672077" lon="-0.4821796310556222">
				<ele>573.47280000000319</ele>
			</trkpt>
			<trkpt lat="38.702688573782446" lon="-0.4822266102500278">
				<ele>574.37570000000414</ele>
			</trkpt>
			<trkpt lat="38.702644850218263" lon="-0.4823216017014341">
				<ele>574.818299999999</ele>
			</trkpt>
			<trkpt lat="38.70251020356951" lon="-0.4822328688126056">
				<ele>572.05060000000231</ele>
			</trkpt>
			<trkpt lat="38.702443554208308" lon="-0.4823968086570329">
				<ele>573.57439999999769</ele>
			</trkpt>
			<trkpt lat="38.702283661667117" lon="-0.4829066897173559">
				<ele>575.97400000000198</ele>
			</trkpt>
			<trkpt lat="38.702144088750288" lon="-0.4834392191025997">
				<ele>575.92750000000524</ele>
			</trkpt>
			<trkpt lat="38.702115147934613" lon="-0.4835122727964559">
				<ele>575.93979999999283</ele>
			</trkpt>
			<trkpt lat="38.701941244806697" lon="-0.4841511411518079">
				<ele>578.15180000000692</ele>
			</trkpt>
			<trkpt lat="38.701847016840333" lon="-0.4845224238418895">
				<ele>579.4945000000007</ele>
			</trkpt>
			<trkpt lat="38.701702896023079" lon="-0.4849149238406492">
				<ele>580.71339999999327</ele>
			</trkpt>
			<trkpt lat="38.701590405911901" lon="-0.4851466631328095">
				<ele>580.35629999999946</ele>
			</trkpt>
			<trkpt lat="38.701431366754527" lon="-0.4854131303955269">
				<ele>579.88310000000638</ele>
			</trkpt>
			<trkpt lat="38.701265081086035" lon="-0.4856973735211088">
				<ele>581.13920000000508</ele>
			</trkpt>
			<trkpt lat="38.701101090307191" lon="-0.4859464889257917">
				<ele>580.97830000000249</ele>
			</trkpt>
			<trkpt lat="38.700894058755395" lon="-0.4862516268648937">
				<ele>580.5908999999956</ele>
			</trkpt>
			<trkpt lat="38.700686230894583" lon="-0.4865197982317051">
				<ele>580.88310000000638</ele>
			</trkpt>
			<trkpt lat="38.700493499223768" lon="-0.4867095601489652">
				<ele>580.88420000000042</ele>
			</trkpt>
			<trkpt lat="38.700329231856372" lon="-0.4868749633489641">
				<ele>580.72629999999481</ele>
			</trkpt>
			<trkpt lat="38.700183642041374" lon="-0.4869866562781397">
				<ele>580.65850000000501</ele>
			</trkpt>
			<trkpt lat="38.700075318814697" lon="-0.4870576186939862">
				<ele>580.66680000000633</ele>
			</trkpt>
			<trkpt lat="38.699844575373845" lon="-0.4871825150612001">
				<ele>580.78590000000258</ele>
			</trkpt>
			<trkpt lat="38.699621020025077" lon="-0.4872691926046697">
				<ele>580.5228999999963</ele>
			</trkpt>
			<trkpt lat="38.699469763359176" lon="-0.4873124536721222">
				<ele>580.75909999999567</ele>
			</trkpt>
			<trkpt lat="38.699351267097839" lon="-0.4873360712792447">
				<ele>579.71659999999974</ele>
			</trkpt>
			<trkpt lat="38.6990672671743" lon="-0.4873966338990606">
				<ele>561.869200000001</ele>
			</trkpt>
			<trkpt lat="38.698279254706947" lon="-0.4875741329143769">
				<ele>581.26300000000629</ele>
			</trkpt>
			<trkpt lat="38.697650773645826" lon="-0.4877207325788652">
				<ele>584.10869999999704</ele>
			</trkpt>
			<trkpt lat="38.697605767501258" lon="-0.4876853182953922">
				<ele>582.38060000000405</ele>
			</trkpt>
			<trkpt lat="38.6974354801864" lon="-0.4877126953520009">
				<ele>584.21929999999702</ele>
			</trkpt>
			<trkpt lat="38.697436212833466" lon="-0.4878178000368638">
				<ele>589.17350000000442</ele>
			</trkpt>
			<trkpt lat="38.697329663431923" lon="-0.4878293164388198">
				<ele>588.88169999999809</ele>
			</trkpt>
			<trkpt lat="38.697089288520779" lon="-0.487861092545348">
				<ele>586.65570000000298</ele>
			</trkpt>
			<trkpt lat="38.696801694870963" lon="-0.4878964682012457">
				<ele>587.95900000000256</ele>
			</trkpt>
			<trkpt lat="38.696603296210029" lon="-0.4878936780339945">
				<ele>588.36430000000109</ele>
			</trkpt>
			<trkpt lat="38.696000329308433" lon="-0.487807705668013">
				<ele>587.48669999999402</ele>
			</trkpt>
			<trkpt lat="38.695610109064056" lon="-0.4877532264393076">
				<ele>586.66890000000421</ele>
			</trkpt>
			<trkpt lat="38.695402122119376" lon="-0.4876592716437518">
				<ele>586.35679999999411</ele>
			</trkpt>
			<trkpt lat="38.695313801575416" lon="-0.4875961721815658">
				<ele>586.72650000000431</ele>
			</trkpt>
			<trkpt lat="38.695161660101547" lon="-0.4875450400755787">
				<ele>586.43679999999586</ele>
			</trkpt>
			<trkpt lat="38.695008913937365" lon="-0.4875367594053011">
				<ele>586.71929999999702</ele>
			</trkpt>
			<trkpt lat="38.694714594450446" lon="-0.4875431679865276">
				<ele>587.6539000000048</ele>
			</trkpt>
			<trkpt lat="38.694368129497114" lon="-0.4876078583650731">
				<ele>587.76089999999385</ele>
			</trkpt>
			<trkpt lat="38.694187461263326" lon="-0.4876536041726306">
				<ele>588.19729999999981</ele>
			</trkpt>
			<trkpt lat="38.694068027252285" lon="-0.487704507208191">
				<ele>588.46630000000005</ele>
			</trkpt>
			<trkpt lat="38.693800662475624" lon="-0.4878647388071">
				<ele>590.06290000000445</ele>
			</trkpt>
			<trkpt lat="38.693537318415309" lon="-0.4880345626166154">
				<ele>591.12970000000496</ele>
			</trkpt>
			<trkpt lat="38.693148860020059" lon="-0.4883760993927091">
				<ele>589.89650000000256</ele>
			</trkpt>
			<trkpt lat="38.692944007033844" lon="-0.4886047898027874">
				<ele>590.70440000000235</ele>
			</trkpt>
			<trkpt lat="38.692806724754284" lon="-0.488814465573237">
				<ele>590.98579999999492</ele>
			</trkpt>
			<trkpt lat="38.692585562852997" lon="-0.4891547087753104">
				<ele>591.46159999999509</ele>
			</trkpt>
			<trkpt lat="38.692377260011462" lon="-0.4894774599821687">
				<ele>591.79409999999916</ele>
			</trkpt>
			<trkpt lat="38.692292053037249" lon="-0.4896239976628907">
				<ele>592.02850000000035</ele>
			</trkpt>
			<trkpt lat="38.692116313551622" lon="-0.4899286289521631">
				<ele>592.89609999999811</ele>
			</trkpt>
			<trkpt lat="38.691950262847023" lon="-0.4902600542913944">
				<ele>594.11669999999867</ele>
			</trkpt>
			<trkpt lat="38.691682741510348" lon="-0.4906764306121072">
				<ele>600.47049999999581</ele>
			</trkpt>
			<trkpt lat="38.691428401619333" lon="-0.4909993102780506">
				<ele>600.29910000000382</ele>
			</trkpt>
			<trkpt lat="38.691306180807693" lon="-0.4911082444809732">
				<ele>598.24850000000151</ele>
			</trkpt>
			<trkpt lat="38.691129979640685" lon="-0.4912500758879015">
				<ele>597.22500000000582</ele>
			</trkpt>
			<trkpt lat="38.691037451066535" lon="-0.491326960896445">
				<ele>597.44719999999506</ele>
			</trkpt>
			<trkpt lat="38.690953364354527" lon="-0.4913725396173422">
				<ele>597.267399999997</ele>
			</trkpt>
			<trkpt lat="38.690791261302017" lon="-0.4914634841583914">
				<ele>601.23930000000109</ele>
			</trkpt>
			<trkpt lat="38.690595932497509" lon="-0.4915633417836746">
				<ele>608.82919999999285</ele>
			</trkpt>
			<trkpt lat="38.69032250366913" lon="-0.4917046916936588">
				<ele>609.30000000000291</ele>
			</trkpt>
			<trkpt lat="38.690130208946776" lon="-0.4918044424194208">
				<ele>609.36490000000049</ele>
			</trkpt>
			<trkpt lat="38.6895111579122" lon="-0.4921206691623603">
				<ele>607.16550000000279</ele>
			</trkpt>
			<trkpt lat="38.688753019242604" lon="-0.4925229347465998">
				<ele>599.42500000000291</ele>
			</trkpt>
			<trkpt lat="38.688294054359901" lon="-0.492780152056838">
				<ele>600.08400000000256</ele>
			</trkpt>
			<trkpt lat="38.68819239895759" lon="-0.4928250489564384">
				<ele>600.21339999999327</ele>
			</trkpt>
			<trkpt lat="38.68804290966365" lon="-0.4929060707068489">
				<ele>600.35559999999532</ele>
			</trkpt>
			<trkpt lat="38.687931198828274" lon="-0.4929857728321234">
				<ele>600.550900000002</ele>
			</trkpt>
			<trkpt lat="38.687814829800239" lon="-0.4931000924351784">
				<ele>600.78840000000491</ele>
			</trkpt>
			<trkpt lat="38.687687666414973" lon="-0.4932147893306479">
				<ele>601.005799999999</ele>
			</trkpt>
			<trkpt lat="38.68754460742398" lon="-0.4933438224397624">
				<ele>601.22340000000258</ele>
			</trkpt>
			<trkpt lat="38.687487456531571" lon="-0.4934491822461675">
				<ele>601.37949999999546</ele>
			</trkpt>
			<trkpt lat="38.687213608427129" lon="-0.4937757270384683">
				<ele>602.00400000000081</ele>
			</trkpt>
			<trkpt lat="38.687129324391158" lon="-0.4938751435909434">
				<ele>602.17190000000119</ele>
			</trkpt>
			<trkpt lat="38.686977833053135" lon="-0.4941147242772341">
				<ele>602.6417999999976</ele>
			</trkpt>
			<trkpt lat="38.686899684248139" lon="-0.4942483783201511">
				<ele>602.76790000000619</ele>
			</trkpt>
			<trkpt lat="38.6868330666194" lon="-0.4944160874954993">
				<ele>602.86830000000191</ele>
			</trkpt>
			<trkpt lat="38.686772436494536" lon="-0.494611149472901">
				<ele>603.16069999999308</ele>
			</trkpt>
			<trkpt lat="38.686630473057271" lon="-0.4950433388375536">
				<ele>603.73050000000512</ele>
			</trkpt>
			<trkpt lat="38.686514755436491" lon="-0.4954401588345549">
				<ele>604.50539999999455</ele>
			</trkpt>
			<trkpt lat="38.686328789387424" lon="-0.4960874983030026">
				<ele>605.21820000000298</ele>
			</trkpt>
			<trkpt lat="38.686253882957338" lon="-0.496372637048924">
				<ele>605.7448000000004</ele>
			</trkpt>
			<trkpt lat="38.68606369354881" lon="-0.4970752471618866">
				<ele>606.80030000000261</ele>
			</trkpt>
			<trkpt lat="38.685978875939931" lon="-0.4974020740251761">
				<ele>606.22599999999511</ele>
			</trkpt>
			<trkpt lat="38.685949294689145" lon="-0.4975340302522122">
				<ele>607.27509999999893</ele>
			</trkpt>
			<trkpt lat="38.685891755454115" lon="-0.4978736877527114">
				<ele>607.60080000000016</ele>
			</trkpt>
			<trkpt lat="38.685830874199141" lon="-0.4982780634795326">
				<ele>608.04809999999998</ele>
			</trkpt>
			<trkpt lat="38.685788204067819" lon="-0.4985870533945551">
				<ele>608.6304999999993</ele>
			</trkpt>
			<trkpt lat="38.68573714600938" lon="-0.4990920889422344">
				<ele>609.18020000000251</ele>
			</trkpt>
			<trkpt lat="38.6857245865937" lon="-0.4992838478143421">
				<ele>609.28620000000228</ele>
			</trkpt>
			<trkpt lat="38.685718815614742" lon="-0.4994933582947926">
				<ele>609.41090000000258</ele>
			</trkpt>
			<trkpt lat="38.685713520758696" lon="-0.499665241941286">
				<ele>607.62010000000009</ele>
			</trkpt>
			<trkpt lat="38.685729638829457" lon="-0.4999393987828243">
				<ele>611.25310000000172</ele>
			</trkpt>
			<trkpt lat="38.685747446818169" lon="-0.5003524908628487">
				<ele>612.24550000000454</ele>
			</trkpt>
			<trkpt lat="38.685752827920858" lon="-0.5006041296352121">
				<ele>612.80469999999332</ele>
			</trkpt>
			<trkpt lat="38.685765007274576" lon="-0.5007541464910257">
				<ele>612.91920000000391</ele>
			</trkpt>
			<trkpt lat="38.685781589536099" lon="-0.5011100500234322">
				<ele>613.17509999999311</ele>
			</trkpt>
			<trkpt lat="38.685796109529896" lon="-0.50136954635954">
				<ele>613.7899999999936</ele>
			</trkpt>
			<trkpt lat="38.685808543416108" lon="-0.5019512558116783">
				<ele>615.35370000000694</ele>
			</trkpt>
			<trkpt lat="38.685823060599645" lon="-0.5022107521477861">
				<ele>616.00310000000172</ele>
			</trkpt>
			<trkpt lat="38.685818006968042" lon="-0.5023940731444575">
				<ele>616.81540000000678</ele>
			</trkpt>
			<trkpt lat="38.685821010257129" lon="-0.5025346001976004">
				<ele>621.90929999999935</ele>
			</trkpt>
			<trkpt lat="38.685834416018011" lon="-0.5031620617454757">
				<ele>637.66610000000219</ele>
			</trkpt>
			<trkpt lat="38.685814711273615" lon="-0.5034996046118074">
				<ele>633.0399000000034</ele>
			</trkpt>
			<trkpt lat="38.685802435161072" lon="-0.5037649390989516">
				<ele>632.06579999999667</ele>
			</trkpt>
			<trkpt lat="38.685796436294574" lon="-0.5039041420353728">
				<ele>630.50410000000556</ele>
			</trkpt>
			<trkpt lat="38.685773239504002" lon="-0.5040782840464692">
				<ele>629.75719999999274</ele>
			</trkpt>
			<trkpt lat="38.685749239817888" lon="-0.5042148414443718">
				<ele>625.72789999999804</ele>
			</trkpt>
			<trkpt lat="38.685723785809067" lon="-0.5043432735805614">
				<ele>620.45709999999963</ele>
			</trkpt>
			<trkpt lat="38.685700579177947" lon="-0.5044569113623196">
				<ele>620.26080000000366</ele>
			</trkpt>
			<trkpt lat="38.685657647416448" lon="-0.5046072102891219">
				<ele>620.74330000000191</ele>
			</trkpt>
			<trkpt lat="38.685600079898343" lon="-0.5047923548658011">
				<ele>621.14380000000529</ele>
			</trkpt>
			<trkpt lat="38.685566207061228" lon="-0.5048867408527306">
				<ele>620.44980000000214</ele>
			</trkpt>
			<trkpt lat="38.685505379522752" lon="-0.5050392954492112">
				<ele>619.45840000000317</ele>
			</trkpt>
			<trkpt lat="38.685375238176348" lon="-0.5053070877269807">
				<ele>610.58719999999448</ele>
			</trkpt>
			<trkpt lat="38.685186131917455" lon="-0.5056946640596827">
				<ele>600.00070000000414</ele>
			</trkpt>
			<trkpt lat="38.685090105690762" lon="-0.5058795085990646">
				<ele>596.98129999999946</ele>
			</trkpt>
			<trkpt lat="38.685022558663945" lon="-0.5060175769632851">
				<ele>595.46270000000368</ele>
			</trkpt>
			<trkpt lat="38.684933867682936" lon="-0.5061858143480266">
				<ele>598.55530000000726</ele>
			</trkpt>
			<trkpt lat="38.684838424533673" lon="-0.506337933261615">
				<ele>606.74490000000515</ele>
			</trkpt>
			<trkpt lat="38.68477710692374" lon="-0.5064676086661206">
				<ele>614.57050000000163</ele>
			</trkpt>
			<trkpt lat="38.684620405425115" lon="-0.506692168622545">
				<ele>621.1585999999952</ele>
			</trkpt>
			<trkpt lat="38.684569533760126" lon="-0.506770789176214">
				<ele>621.5853000000061</ele>
			</trkpt>
			<trkpt lat="38.684463878188353" lon="-0.5069248969598095">
				<ele>622.550900000002</ele>
			</trkpt>
			<trkpt lat="38.684392584623694" lon="-0.507007497050187">
				<ele>628.1420000000071</ele>
			</trkpt>
			<trkpt lat="38.684261557707636" lon="-0.5071739306178233">
				<ele>647.34020000000601</ele>
			</trkpt>
			<trkpt lat="38.684059507329181" lon="-0.5073755323305279">
				<ele>649.34249999999884</ele>
			</trkpt>
			<trkpt lat="38.683765739542899" lon="-0.5076637127719879">
				<ele>647.95269999999437</ele>
			</trkpt>
			<trkpt lat="38.683534536072884" lon="-0.5078205379593367">
				<ele>647.68319999999949</ele>
			</trkpt>
			<trkpt lat="38.683294428960416" lon="-0.5079204413987052">
				<ele>646.55569999999716</ele>
			</trkpt>
			<trkpt lat="38.683122992609007" lon="-0.5079950680426457">
				<ele>645.14849999999569</ele>
			</trkpt>
			<trkpt lat="38.682945703300476" lon="-0.5080355596040467">
				<ele>644.96880000000237</ele>
			</trkpt>
			<trkpt lat="38.682757678947823" lon="-0.5080535304013145">
				<ele>643.68929999999818</ele>
			</trkpt>
			<trkpt lat="38.682532269403232" lon="-0.5080613520325088">
				<ele>642.38700000000244</ele>
			</trkpt>
			<trkpt lat="38.682389071776953" lon="-0.5080777678460009">
				<ele>642.40589999999793</ele>
			</trkpt>
			<trkpt lat="38.68217958008627" lon="-0.50805069891153">
				<ele>642.35330000000249</ele>
			</trkpt>
			<trkpt lat="38.681960601982787" lon="-0.5079994320582785">
				<ele>640.20500000000175</ele>
			</trkpt>
			<trkpt lat="38.681743975206736" lon="-0.5079382747537505">
				<ele>636.10090000000491</ele>
			</trkpt>
			<trkpt lat="38.681546071945213" lon="-0.5078535744022259">
				<ele>630.51910000000498</ele>
			</trkpt>
			<trkpt lat="38.681351488580482" lon="-0.5077442323641543">
				<ele>630.67900000000373</ele>
			</trkpt>
			<trkpt lat="38.681208691814064" lon="-0.5076592562298541">
				<ele>630.99820000000182</ele>
			</trkpt>
			<trkpt lat="38.68108015765047" lon="-0.5075819606912371">
				<ele>630.93570000000182</ele>
			</trkpt>
			<trkpt lat="38.680407468550428" lon="-0.5071703687977319">
				<ele>612.51630000000296</ele>
			</trkpt>
			<trkpt lat="38.680295827141272" lon="-0.5071039347892203">
				<ele>608.13619999999355</ele>
			</trkpt>
			<trkpt lat="38.679966234317902" lon="-0.5069142582119178">
				<ele>601.01880000000529</ele>
			</trkpt>
			<trkpt lat="38.679191460519235" lon="-0.5064637099777845">
				<ele>589.58370000000286</ele>
			</trkpt>
			<trkpt lat="38.678770856780176" lon="-0.506213432153124">
				<ele>609.28479999999399</ele>
			</trkpt>
			<trkpt lat="38.678500011172183" lon="-0.5060740450620644">
				<ele>629.03729999999632</ele>
			</trkpt>
			<trkpt lat="38.678389685202156" lon="-0.5060092028682094">
				<ele>630.53740000000107</ele>
			</trkpt>
			<trkpt lat="38.678227152549887" lon="-0.5059003935311166">
				<ele>630.87649999999849</ele>
			</trkpt>
			<trkpt lat="38.678078465047108" lon="-0.5057796581602915">
				<ele>631.72530000000552</ele>
			</trkpt>
			<trkpt lat="38.67799603497663" lon="-0.5057007672137294">
				<ele>632.11729999999807</ele>
			</trkpt>
			<trkpt lat="38.677847652054723" lon="-0.5055342402212948">
				<ele>632.65099999999802</ele>
			</trkpt>
			<trkpt lat="38.677765013435121" lon="-0.5054455477566691">
				<ele>633.11079999999492</ele>
			</trkpt>
			<trkpt lat="38.677678148738678" lon="-0.505339017445446">
				<ele>633.53290000000561</ele>
			</trkpt>
			<trkpt lat="38.677595814284139" lon="-0.5052045333592109">
				<ele>633.73699999999371</ele>
			</trkpt>
			<trkpt lat="38.677530931407624" lon="-0.5051070490828924">
				<ele>633.66890000000421</ele>
			</trkpt>
			<trkpt lat="38.677493605090149" lon="-0.5050396745382529">
				<ele>633.4713000000047</ele>
			</trkpt>
			<trkpt lat="38.677390734429814" lon="-0.5048437726360318">
				<ele>632.90600000000268</ele>
			</trkpt>
			<trkpt lat="38.677315909811902" lon="-0.5047008533692849">
				<ele>632.88839999999618</ele>
			</trkpt>
			<trkpt lat="38.677249491545794" lon="-0.5045314823106732">
				<ele>633.13300000000163</ele>
			</trkpt>
			<trkpt lat="38.67717386309468" lon="-0.5043509856172763">
				<ele>633.85860000000685</ele>
			</trkpt>
			<trkpt lat="38.677125060571939" lon="-0.5041662884015848">
				<ele>634.68589999999676</ele>
			</trkpt>
			<trkpt lat="38.677075595289999" lon="-0.5039505472063331">
				<ele>636.15929999999935</ele>
			</trkpt>
			<trkpt lat="38.677035826115471" lon="-0.5037688063462562">
				<ele>636.59489999999641</ele>
			</trkpt>
			<trkpt lat="38.676995011283516" lon="-0.5035380507093175">
				<ele>637.03770000000077</ele>
			</trkpt>
			<trkpt lat="38.676973207924704" lon="-0.5033573204539418">
				<ele>637.54110000000219</ele>
			</trkpt>
			<trkpt lat="38.676950601572507" lon="-0.5031390118735855">
				<ele>637.47030000000086</ele>
			</trkpt>
			<trkpt lat="38.676947634378664" lon="-0.5030001377205685">
				<ele>637.44599999999627</ele>
			</trkpt>
			<trkpt lat="38.676944004457603" lon="-0.5028302204862549">
				<ele>638.16079999999783</ele>
			</trkpt>
			<trkpt lat="38.676940095419511" lon="-0.5026472336628705">
				<ele>638.74259999999776</ele>
			</trkpt>
			<trkpt lat="38.676937616329056" lon="-0.5025312324136154">
				<ele>639.31840000000375</ele>
			</trkpt>
			<trkpt lat="38.676935382693046" lon="-0.5024266676162416">
				<ele>639.71760000000359</ele>
			</trkpt>
			<trkpt lat="38.676922447239086" lon="-0.5023012214800706">
				<ele>639.95149999999558</ele>
			</trkpt>
			<trkpt lat="38.676920038277878" lon="-0.5021884874034924">
				<ele>640.86449999999604</ele>
			</trkpt>
			<trkpt lat="38.676916585784042" lon="-0.5011274755432953">
				<ele>644.93550000000687</ele>
			</trkpt>
			<trkpt lat="38.676912149367737" lon="-0.5009199799840344">
				<ele>642.38099999999395</ele>
			</trkpt>
			<trkpt lat="38.676911695627396" lon="-0.5008987420140897">
				<ele>642.34249999999884</ele>
			</trkpt>
			<trkpt lat="38.676925468433957" lon="-0.5007036935114111">
				<ele>642.43210000000545</ele>
			</trkpt>
			<trkpt lat="38.676936271939681" lon="-0.5003697717539791">
				<ele>642.28239999999641</ele>
			</trkpt>
			<trkpt lat="38.676935783134539" lon="-0.5003468979519202">
				<ele>642.29029999999329</ele>
			</trkpt>
			<trkpt lat="38.676938807134079" lon="-0.5000688388287572">
				<ele>642.31070000000182</ele>
			</trkpt>
			<trkpt lat="38.67694172734128" lon="-0.4997858775991001">
				<ele>642.78230000000622</ele>
			</trkpt>
			<trkpt lat="38.676935995628057" lon="-0.4995179317093935">
				<ele>643.83090000000084</ele>
			</trkpt>
			<trkpt lat="38.676930647524692" lon="-0.4992679593119128">
				<ele>645.24920000000566</ele>
			</trkpt>
			<trkpt lat="38.676931886719423" lon="-0.498906574259651">
				<ele>660.55590000000666</ele>
			</trkpt>
			<trkpt lat="38.676934672978852" lon="-0.4969411745040221">
				<ele>649.69060000000172</ele>
			</trkpt>
			<trkpt lat="38.676948755053637" lon="-0.4967608305242318">
				<ele>650.13400000000547</ele>
			</trkpt>
			<trkpt lat="38.676980508438973" lon="-0.4965771636761779">
				<ele>650.01369999999588</ele>
			</trkpt>
			<trkpt lat="38.677011312252894" lon="-0.4963323682696698">
				<ele>649.89710000000196</ele>
			</trkpt>
			<trkpt lat="38.677035990219125" lon="-0.496205507286937">
				<ele>649.52659999999742</ele>
			</trkpt>
			<trkpt lat="38.677144301346949" lon="-0.4957759086635468">
				<ele>649.22639999999956</ele>
			</trkpt>
			<trkpt lat="38.67728494833765" lon="-0.4951731957017731">
				<ele>649.69469999999274</ele>
			</trkpt>
			<trkpt lat="38.677348665184276" lon="-0.4948159662560175">
				<ele>651.88719999999739</ele>
			</trkpt>
			<trkpt lat="38.677445230574499" lon="-0.4943095167600733">
				<ele>655.35289999999804</ele>
			</trkpt>
			<trkpt lat="38.677678044246228" lon="-0.4933320185769017">
				<ele>658.58650000000489</ele>
			</trkpt>
			<trkpt lat="38.677766439158646" lon="-0.4928819527381098">
				<ele>657.62149999999383</ele>
			</trkpt>
			<trkpt lat="38.677915173594705" lon="-0.4922200848165384">
				<ele>658.78680000000168</ele>
			</trkpt>
			<trkpt lat="38.67803930023863" lon="-0.4917218638886071">
				<ele>659.95879999999306</ele>
			</trkpt>
			<trkpt lat="38.678294937415096" lon="-0.4906331848160054">
				<ele>660.55909999999858</ele>
			</trkpt>
			<trkpt lat="38.678377519320122" lon="-0.4902486160428859">
				<ele>660.86830000000191</ele>
			</trkpt>
			<trkpt lat="38.678392657946482" lon="-0.490147837644411">
				<ele>661.21199999999953</ele>
			</trkpt>
			<trkpt lat="38.678447162444996" lon="-0.4897651679097888">
				<ele>662.46950000000652</ele>
			</trkpt>
			<trkpt lat="38.678469335632535" lon="-0.4895219948607055">
				<ele>662.99259999999776</ele>
			</trkpt>
			<trkpt lat="38.678473321728298" lon="-0.4893048010896136">
				<ele>663.77740000000631</ele>
			</trkpt>
			<trkpt lat="38.678477514702465" lon="-0.4890636878774748">
				<ele>664.44180000000051</ele>
			</trkpt>
			<trkpt lat="38.678461989686703" lon="-0.4887772780154272">
				<ele>665.58150000000023</ele>
			</trkpt>
			<trkpt lat="38.678447183483506" lon="-0.4884908421022638">
				<ele>666.45350000000326</ele>
			</trkpt>
			<trkpt lat="38.678445702372123" lon="-0.4884219152688066">
				<ele>666.51690000000235</ele>
			</trkpt>
			<trkpt lat="38.678433137469042" lon="-0.48827335907364">
				<ele>666.74229999999807</ele>
			</trkpt>
			<trkpt lat="38.678423228326388" lon="-0.4882148446126728">
				<ele>666.88910000000033</ele>
			</trkpt>
			<trkpt lat="38.678220668459709" lon="-0.4867402627687286">
				<ele>672.50890000000072</ele>
			</trkpt>
			<trkpt lat="38.678189072011399" lon="-0.4865114394079799">
				<ele>670.64019999999437</ele>
			</trkpt>
			<trkpt lat="38.678012528572211" lon="-0.485057570019545">
				<ele>671.63039999999455</ele>
			</trkpt>
			<trkpt lat="38.677948587904162" lon="-0.4845876900405412">
				<ele>672.44449999999779</ele>
			</trkpt>
			<trkpt lat="38.677936224885002" lon="-0.4844152162009215">
				<ele>672.70709999999963</ele>
			</trkpt>
			<trkpt lat="38.677933297004181" lon="-0.4842792013854324">
				<ele>672.99860000000626</ele>
			</trkpt>
			<trkpt lat="38.677919471794873" lon="-0.4840834800445945">
				<ele>673.93600000000151</ele>
			</trkpt>
			<trkpt lat="38.67792438222002" lon="-0.4838650304287606">
				<ele>674.4323000000004</ele>
			</trkpt>
			<trkpt lat="38.677922377235006" lon="-0.4837719020832342">
				<ele>674.79850000000442</ele>
			</trkpt>
			<trkpt lat="38.677968040948201" lon="-0.4833926073191404">
				<ele>676.23189999999886</ele>
			</trkpt>
			<trkpt lat="38.678067425379929" lon="-0.4829636024821649">
				<ele>683.80620000000636</ele>
			</trkpt>
			<trkpt lat="38.678194679496649" lon="-0.4825789941831731">
				<ele>679.53750000000582</ele>
			</trkpt>
			<trkpt lat="38.678262038010949" lon="-0.4824037256847166">
				<ele>678.3521999999939</ele>
			</trkpt>
			<trkpt lat="38.678400495499716" lon="-0.4821376716469973">
				<ele>678.7835999999952</ele>
			</trkpt>
			<trkpt lat="38.678537580310021" lon="-0.4818078974112644">
				<ele>678.92220000000088</ele>
			</trkpt>
			<trkpt lat="38.678762771715455" lon="-0.4813291025513655">
				<ele>679.47870000000694</ele>
			</trkpt>
			<trkpt lat="38.67892488869542" lon="-0.4809567535610292">
				<ele>680.46090000000549</ele>
			</trkpt>
			<trkpt lat="38.679001348415014" lon="-0.4807578638621953">
				<ele>681.45970000000671</ele>
			</trkpt>
			<trkpt lat="38.679035365316501" lon="-0.4806413972856105">
				<ele>681.79529999999795</ele>
			</trkpt>
			<trkpt lat="38.679086893805085" lon="-0.4804899808545522">
				<ele>682.39079999999376</ele>
			</trkpt>
			<trkpt lat="38.679118778081957" lon="-0.4803637792352557">
				<ele>682.63180000000284</ele>
			</trkpt>
			<trkpt lat="38.679168994421751" lon="-0.4801069464039418">
				<ele>682.94640000000072</ele>
			</trkpt>
			<trkpt lat="38.679198923503364" lon="-0.4798900661449038">
				<ele>683.7951999999932</ele>
			</trkpt>
			<trkpt lat="38.679230218658397" lon="-0.479647385372563">
				<ele>684.37850000000617</ele>
			</trkpt>
			<trkpt lat="38.67922770879111" lon="-0.4795309744915316">
				<ele>684.34889999999723</ele>
			</trkpt>
			<trkpt lat="38.679224986437056" lon="-0.4794047611941062">
				<ele>684.01510000000417</ele>
			</trkpt>
			<trkpt lat="38.679222502516829" lon="-0.4792895756151158">
				<ele>683.97280000000319</ele>
			</trkpt>
			<trkpt lat="38.67919833232736" lon="-0.4790157313873007">
				<ele>684.11160000000382</ele>
			</trkpt>
			<trkpt lat="38.679187679236236" lon="-0.4789229057740296">
				<ele>684.22590000000491</ele>
			</trkpt>
			<trkpt lat="38.679136110847431" lon="-0.478626724936653">
				<ele>684.90270000000601</ele>
			</trkpt>
			<trkpt lat="38.679124787326145" lon="-0.4785474117818885">
				<ele>684.96820000000298</ele>
			</trkpt>
			<trkpt lat="38.679105251845783" lon="-0.4784438620807679">
				<ele>685.16319999999541</ele>
			</trkpt>
			<trkpt lat="38.679084754207317" lon="-0.4783403456173402">
				<ele>685.24580000000424</ele>
			</trkpt>
			<trkpt lat="38.679035458586497" lon="-0.4781495470442629">
				<ele>685.53119999999763</ele>
			</trkpt>
			<trkpt lat="38.678996208044396" lon="-0.4780233903406879">
				<ele>686.01870000000054</ele>
			</trkpt>
			<trkpt lat="38.678919216048463" lon="-0.4778409236418562">
				<ele>686.62069999999949</ele>
			</trkpt>
			<trkpt lat="38.678862676094454" lon="-0.4777153724028249">
				<ele>687.02220000000671</ele>
			</trkpt>
			<trkpt lat="38.678798029295301" lon="-0.4775704876221955">
				<ele>687.44430000000284</ele>
			</trkpt>
			<trkpt lat="38.678609480706612" lon="-0.4772521417535031">
				<ele>689.13159999999334</ele>
			</trkpt>
			<trkpt lat="38.678240642485157" lon="-0.4768199550838084">
				<ele>703.64879999999539</ele>
			</trkpt>
			<trkpt lat="38.677944301627647" lon="-0.4764955905026963">
				<ele>705.34020000000601</ele>
			</trkpt>
			<trkpt lat="38.677660042095567" lon="-0.4761965566159715">
				<ele>692.51039999999921</ele>
			</trkpt>
			<trkpt lat="38.677446614928051" lon="-0.4759281445006381">
				<ele>691.43809999999939</ele>
			</trkpt>
			<trkpt lat="38.677280554723183" lon="-0.4757610767224176">
				<ele>691.86909999999625</ele>
			</trkpt>
			<trkpt lat="38.677058985063155" lon="-0.4755162516715387">
				<ele>692.27959999999439</ele>
			</trkpt>
			<trkpt lat="38.676865024174461" lon="-0.4753035683414733">
				<ele>692.73029999999562</ele>
			</trkpt>
			<trkpt lat="38.676754241942845" lon="-0.4751590842095161">
				<ele>693.02090000000317</ele>
			</trkpt>
			<trkpt lat="38.676735727610385" lon="-0.4751474725861344">
				<ele>693.10279999999329</ele>
			</trkpt>
			<trkpt lat="38.676588718030274" lon="-0.4749723801574756">
				<ele>693.66719999999623</ele>
			</trkpt>
			<trkpt lat="38.676403858090055" lon="-0.4747360801186182">
				<ele>694.48630000000412</ele>
			</trkpt>
			<trkpt lat="38.676291075023073" lon="-0.4745879901490785">
				<ele>695.02030000000377</ele>
			</trkpt>
			<trkpt lat="38.676169919586556" lon="-0.4744083118209039">
				<ele>695.65380000000005</ele>
			</trkpt>
			<trkpt lat="38.676057911796747" lon="-0.4742516114993852">
				<ele>696.06179999999586</ele>
			</trkpt>
			<trkpt lat="38.67589034756908" lon="-0.4739705618846514">
				<ele>697.324099999998</ele>
			</trkpt>
			<trkpt lat="38.675806194666009" lon="-0.4738128832977601">
				<ele>700.41559999999299</ele>
			</trkpt>
			<trkpt lat="38.67578696475227" lon="-0.4737681885191068">
				<ele>702.83259999999427</ele>
			</trkpt>
			<trkpt lat="38.675659318529739" lon="-0.4732883120876025">
				<ele>718.74330000000191</ele>
			</trkpt>
			<trkpt lat="38.675609368329923" lon="-0.472622992838716">
				<ele>725.70849999999336</ele>
			</trkpt>
			<trkpt lat="38.675613759942998" lon="-0.4719815130808684">
				<ele>725.30650000000605</ele>
			</trkpt>
			<trkpt lat="38.675586525204871" lon="-0.471566776185525">
				<ele>730.21869999999763</ele>
			</trkpt>
			<trkpt lat="38.675524040398166" lon="-0.4711667680676249">
				<ele>731.71499999999651</ele>
			</trkpt>
			<trkpt lat="38.675435212110074" lon="-0.4708375849233154">
				<ele>733.68809999999939</ele>
			</trkpt>
			<trkpt lat="38.675301693854614" lon="-0.4704866778205317">
				<ele>726.07129999999597</ele>
			</trkpt>
			<trkpt lat="38.675159768675641" lon="-0.4701471047616597">
				<ele>713.08920000000217</ele>
			</trkpt>
			<trkpt lat="38.675094152117673" lon="-0.4700022675917766">
				<ele>708.08190000000468</ele>
			</trkpt>
			<trkpt lat="38.674979587743856" lon="-0.4697720922665296">
				<ele>707.57009999999718</ele>
			</trkpt>
			<trkpt lat="38.674867068933906" lon="-0.469592121985865">
				<ele>707.23450000000594</ele>
			</trkpt>
			<trkpt lat="38.674766369291625" lon="-0.4694252239892292">
				<ele>706.83710000000428</ele>
			</trkpt>
			<trkpt lat="38.674652890038061" lon="-0.4692452878445543">
				<ele>709.20100000000093</ele>
			</trkpt>
			<trkpt lat="38.674522843271177" lon="-0.4690548998015506">
				<ele>711.01189999999769</ele>
			</trkpt>
			<trkpt lat="38.6742979912921" lon="-0.4687035408461601">
				<ele>715.64849999999569</ele>
			</trkpt>
			<trkpt lat="38.674129936224254" lon="-0.468400456455823">
				<ele>722.4372000000003</ele>
			</trkpt>
			<trkpt lat="38.67378344873589" lon="-0.4677590988688473">
				<ele>728.8289999999979</ele>
			</trkpt>
			<trkpt lat="38.673444563421128" lon="-0.4671137994743746">
				<ele>737.07439999999769</ele>
			</trkpt>
			<trkpt lat="38.67315485978515" lon="-0.466609010963397">
				<ele>734.54339999999502</ele>
			</trkpt>
			<trkpt lat="38.672863127407211" lon="-0.46609939221116">
				<ele>765.09420000000682</ele>
			</trkpt>
			<trkpt lat="38.672622525815477" lon="-0.4657314395758185">
				<ele>780.1591999999946</ele>
			</trkpt>
			<trkpt lat="38.67222350313213" lon="-0.4652391026130089">
				<ele>809.80959999999322</ele>
			</trkpt>
			<trkpt lat="38.672040379674172" lon="-0.4650837084419031">
				<ele>814.73910000000615</ele>
			</trkpt>
			<trkpt lat="38.671792664340167" lon="-0.464875417873611">
				<ele>806.31849999999395</ele>
			</trkpt>
			<trkpt lat="38.671618662249173" lon="-0.4647417746104591">
				<ele>799.62960000000021</ele>
			</trkpt>
			<trkpt lat="38.671382545835627" lon="-0.4646250376409813">
				<ele>793.66210000000137</ele>
			</trkpt>
			<trkpt lat="38.671073402087167" lon="-0.4645096535343324">
				<ele>790.03519999999844</ele>
			</trkpt>
			<trkpt lat="38.670764282252634" lon="-0.4644396379427598">
				<ele>794.94130000000587</ele>
			</trkpt>
			<trkpt lat="38.670448969458555" lon="-0.4643943637507453">
				<ele>799.96150000000489</ele>
			</trkpt>
			<trkpt lat="38.669897821525133" lon="-0.4643782578560183">
				<ele>771.47789999999804</ele>
			</trkpt>
			<trkpt lat="38.668376095160696" lon="-0.4643755638084898">
				<ele>774.96150000000489</ele>
			</trkpt>
			<trkpt lat="38.667490902236871" lon="-0.4643369164883298">
				<ele>729.24120000000403</ele>
			</trkpt>
			<trkpt lat="38.666842288549461" lon="-0.4643034075316005">
				<ele>723.21769999999378</ele>
			</trkpt>
			<trkpt lat="38.666598772747271" lon="-0.4642887057036704">
				<ele>734.7039999999979</ele>
			</trkpt>
			<trkpt lat="38.665985384007229" lon="-0.4641951021493796">
				<ele>764.92799999999988</ele>
			</trkpt>
			<trkpt lat="38.665388589624513" lon="-0.4641131748971615">
				<ele>788.71600000000035</ele>
			</trkpt>
			<trkpt lat="38.664963006092741" lon="-0.4640362404812776">
				<ele>797.35309999999299</ele>
			</trkpt>
			<trkpt lat="38.664573706586573" lon="-0.4639923559830061">
				<ele>797.17380000000412</ele>
			</trkpt>
			<trkpt lat="38.664322000979979" lon="-0.463954649198974">
				<ele>783.05830000000424</ele>
			</trkpt>
			<trkpt lat="38.663966224740456" lon="-0.4637722651451418">
				<ele>784.28729999999632</ele>
			</trkpt>
			<trkpt lat="38.663418437963216" lon="-0.4634237897818008">
				<ele>790.12760000000708</ele>
			</trkpt>
			<trkpt lat="38.662933057271367" lon="-0.4630718909389214">
				<ele>786.16220000000612</ele>
			</trkpt>
			<trkpt lat="38.662483533726459" lon="-0.4627334425708156">
				<ele>782.13169999999809</ele>
			</trkpt>
			<trkpt lat="38.662072400217539" lon="-0.4624365520643319">
				<ele>798.8469000000041</ele>
			</trkpt>
			<trkpt lat="38.661640617216442" lon="-0.4621183265698839">
				<ele>790.14639999999781</ele>
			</trkpt>
			<trkpt lat="38.661367493015348" lon="-0.4619796266900372">
				<ele>798.09750000000349</ele>
			</trkpt>
			<trkpt lat="38.661113047484641" lon="-0.4618157479310459">
				<ele>791.72340000000258</ele>
			</trkpt>
			<trkpt lat="38.660534211942348" lon="-0.4615649544734183">
				<ele>777.50639999999839</ele>
			</trkpt>
			<trkpt lat="38.659945048962754" lon="-0.4612951643424373">
				<ele>761.8804999999993</ele>
			</trkpt>
			<trkpt lat="38.659485655224564" lon="-0.4611254088049013">
				<ele>754.62420000000566</ele>
			</trkpt>
			<trkpt lat="38.659201890589863" lon="-0.4609639806500252">
				<ele>763.60360000000219</ele>
			</trkpt>
			<trkpt lat="38.659003809262224" lon="-0.460970978526081">
				<ele>766.70100000000093</ele>
			</trkpt>
			<trkpt lat="38.658835832634736" lon="-0.4610001611963888">
				<ele>767.77589999999327</ele>
			</trkpt>
			<trkpt lat="38.658553755989082" lon="-0.4611263637140493">
				<ele>770.27939999999944</ele>
			</trkpt>
			<trkpt lat="38.658162822962048" lon="-0.4614859808818231">
				<ele>767.94239999999991</ele>
			</trkpt>
			<trkpt lat="38.657954045331074" lon="-0.4616299332111654">
				<ele>766.95889999999781</ele>
			</trkpt>
			<trkpt lat="38.657746535379268" lon="-0.4617273456222493">
				<ele>754.97539999999572</ele>
			</trkpt>
			<trkpt lat="38.657505945421683" lon="-0.4618753259973433">
				<ele>755.54780000000028</ele>
			</trkpt>
			<trkpt lat="38.657395833320322" lon="-0.4619460503596591">
				<ele>754.9774999999936</ele>
			</trkpt>
			<trkpt lat="38.657314457626534" lon="-0.4620080637586542">
				<ele>754.69019999999728</ele>
			</trkpt>
			<trkpt lat="38.657271443600109" lon="-0.4620635239476567">
				<ele>754.62339999999676</ele>
			</trkpt>
			<trkpt lat="38.657173836640595" lon="-0.4621723997601014">
				<ele>754.7051000000065</ele>
			</trkpt>
			<trkpt lat="38.656726321808705" lon="-0.4628121933801971">
				<ele>754.38009999999485</ele>
			</trkpt>
			<trkpt lat="38.656569898425055" lon="-0.4630457346928015">
				<ele>754.30180000000109</ele>
			</trkpt>
			<trkpt lat="38.656448084578933" lon="-0.4632351471653908">
				<ele>754.32129999999597</ele>
			</trkpt>
			<trkpt lat="38.656369367896716" lon="-0.4633286438201602">
				<ele>754.5564000000013</ele>
			</trkpt>
			<trkpt lat="38.656316827626924" lon="-0.4633881149869364">
				<ele>754.59549999999581</ele>
			</trkpt>
			<trkpt lat="38.656236937890206" lon="-0.463471845157929">
				<ele>754.62930000000051</ele>
			</trkpt>
			<trkpt lat="38.656167320861023" lon="-0.4635417269005008">
				<ele>754.64440000000468</ele>
			</trkpt>
			<trkpt lat="38.656105681252797" lon="-0.4636248120811441">
				<ele>754.68309999999474</ele>
			</trkpt>
			<trkpt lat="38.656026562232775" lon="-0.4637440643334281">
				<ele>754.74039999999513</ele>
			</trkpt>
			<trkpt lat="38.655939917387961" lon="-0.463870938790884">
				<ele>755.03979999999865</ele>
			</trkpt>
			<trkpt lat="38.655843052209541" lon="-0.464014109585918">
				<ele>755.5573000000004</ele>
			</trkpt>
			<trkpt lat="38.655765801009892" lon="-0.4641308438604713">
				<ele>756.58409999999276</ele>
			</trkpt>
			<trkpt lat="38.655686817005297" lon="-0.4642120883930953">
				<ele>756.0853999999963</ele>
			</trkpt>
			<trkpt lat="38.655607696821157" lon="-0.4643313397470489">
				<ele>757.04690000000119</ele>
			</trkpt>
			<trkpt lat="38.655537412046158" lon="-0.464414727659914">
				<ele>757.20179999999527</ele>
			</trkpt>
			<trkpt lat="38.655492794005262" lon="-0.4644849525589437">
				<ele>758.34149999999499</ele>
			</trkpt>
			<trkpt lat="38.655414824783755" lon="-0.4645686117630324">
				<ele>758.15069999999832</ele>
			</trkpt>
			<trkpt lat="38.655212297326315" lon="-0.4647596394065361">
				<ele>758.98570000000473</ele>
			</trkpt>
			<trkpt lat="38.655086805245382" lon="-0.4648682663856181">
				<ele>759.80520000000251</ele>
			</trkpt>
			<trkpt lat="38.654997738340768" lon="-0.4649277986378301">
				<ele>759.83520000000135</ele>
			</trkpt>
			<trkpt lat="38.654935088247285" lon="-0.4649643331204167">
				<ele>759.99430000000575</ele>
			</trkpt>
			<trkpt lat="38.65483091753476" lon="-0.4650366573822632">
				<ele>760.48549999999523</ele>
			</trkpt>
			<trkpt lat="38.65473323218739" lon="-0.4650977176687713">
				<ele>761.19190000000526</ele>
			</trkpt>
			<trkpt lat="38.654654464514429" lon="-0.4651446276929003">
				<ele>762.03810000000522</ele>
			</trkpt>
			<trkpt lat="38.654580823445563" lon="-0.4651619355334768">
				<ele>760.35719999999856</ele>
			</trkpt>
			<trkpt lat="38.654480951123794" lon="-0.4652108155630406">
				<ele>760.93120000000636</ele>
			</trkpt>
			<trkpt lat="38.654365445298154" lon="-0.4652479860528723">
				<ele>759.23789999999281</ele>
			</trkpt>
			<trkpt lat="38.654222831814998" lon="-0.4652763072388305">
				<ele>758.70579999999609</ele>
			</trkpt>
			<trkpt lat="38.654061512649932" lon="-0.4653285793069008">
				<ele>758.26929999999993</ele>
			</trkpt>
			<trkpt lat="38.653907347265495" lon="-0.4653560812293059">
				<ele>758.70119999999588</ele>
			</trkpt>
			<trkpt lat="38.653808943699907" lon="-0.465384068241977">
				<ele>759.01970000000438</ele>
			</trkpt>
			<trkpt lat="38.653325605978701" lon="-0.465480791645254">
				<ele>762.75410000000556</ele>
			</trkpt>
			<trkpt lat="38.653146731070898" lon="-0.4655214224455718">
				<ele>764.07660000000033</ele>
			</trkpt>
			<trkpt lat="38.652680948334591" lon="-0.4656297835233463">
				<ele>765.11049999999523</ele>
			</trkpt>
			<trkpt lat="38.652492495823616" lon="-0.465671977392247">
				<ele>764.69030000000203</ele>
			</trkpt>
			<trkpt lat="38.652151770618133" lon="-0.4657403778129049">
				<ele>765.58400000000256</ele>
			</trkpt>
			<trkpt lat="38.651443691592348" lon="-0.4658903740074855">
				<ele>767.9372000000003</ele>
			</trkpt>
			<trkpt lat="38.651352707734986" lon="-0.4659058394034152">
				<ele>767.56519999999728</ele>
			</trkpt>
			<trkpt lat="38.650249535581843" lon="-0.4661525985271117">
				<ele>771.00160000000324</ele>
			</trkpt>
			<trkpt lat="38.649990455320257" lon="-0.4662181171523811">
				<ele>771.82749999999942</ele>
			</trkpt>
			<trkpt lat="38.649487932031441" lon="-0.4663167306109843">
				<ele>770.61049999999523</ele>
			</trkpt>
			<trkpt lat="38.649084077095246" lon="-0.4663996073824678">
				<ele>769.40409999999974</ele>
			</trkpt>
			<trkpt lat="38.648788761226726" lon="-0.4664786573308494">
				<ele>773.55130000000645</ele>
			</trkpt>
			<trkpt lat="38.648672081607948" lon="-0.4665060595402769">
				<ele>775.24330000000191</ele>
			</trkpt>
			<trkpt lat="38.648537873607658" lon="-0.4665230466822897">
				<ele>775.68929999999818</ele>
			</trkpt>
			<trkpt lat="38.648303744432383" lon="-0.4665423290198866">
				<ele>774.81140000000596</ele>
			</trkpt>
			<trkpt lat="38.648141414992395" lon="-0.4665480485932726">
				<ele>776.18970000000263</ele>
			</trkpt>
			<trkpt lat="38.647934903030077" lon="-0.4665553258453924">
				<ele>776.06960000000254</ele>
			</trkpt>
			<trkpt lat="38.647158798263135" lon="-0.4665826723592663">
				<ele>777.23219999999856</ele>
			</trkpt>
			<trkpt lat="38.646945561512673" lon="-0.4665901858683229">
				<ele>777.86070000000473</ele>
			</trkpt>
			<trkpt lat="38.646547665636866" lon="-0.466593174563266">
				<ele>778.34709999999905</ele>
			</trkpt>
			<trkpt lat="38.646259242347568" lon="-0.4665910787937044">
				<ele>778.83440000000701</ele>
			</trkpt>
			<trkpt lat="38.646160309092814" lon="-0.4665945651553397">
				<ele>778.91310000000522</ele>
			</trkpt>
			<trkpt lat="38.646009050279176" lon="-0.4666231836836369">
				<ele>779.02009999999427</ele>
			</trkpt>
			<trkpt lat="38.645693562534063" lon="-0.4667029397078372">
				<ele>779.59570000000531</ele>
			</trkpt>
			<trkpt lat="38.645586752975213" lon="-0.466742249086358">
				<ele>780.0335999999952</ele>
			</trkpt>
			<trkpt lat="38.645479196046018" lon="-0.4667913905256436">
				<ele>780.68120000000636</ele>
			</trkpt>
			<trkpt lat="38.645301302041219" lon="-0.4668773305522628">
				<ele>780.94469999999274</ele>
			</trkpt>
			<trkpt lat="38.645105689830388" lon="-0.4669884072371295">
				<ele>781.41120000000228</ele>
			</trkpt>
			<trkpt lat="38.644954261105347" lon="-0.4670979271416264">
				<ele>781.60730000000331</ele>
			</trkpt>
			<trkpt lat="38.644840001420029" lon="-0.4671926553866498">
				<ele>781.54399999999441</ele>
			</trkpt>
			<trkpt lat="38.64477811912969" lon="-0.4672647002724322">
				<ele>781.9600999999966</ele>
			</trkpt>
			<trkpt lat="38.644576970445897" lon="-0.4674752536969463">
				<ele>783.41370000000461</ele>
			</trkpt>
			<trkpt lat="38.644461876638395" lon="-0.4676202642416692">
				<ele>784.16740000000573</ele>
			</trkpt>
			<trkpt lat="38.644373359221589" lon="-0.4677496288291125">
				<ele>784.45570000000589</ele>
			</trkpt>
			<trkpt lat="38.644260610598231" lon="-0.4679141669515067">
				<ele>784.64890000000014</ele>
			</trkpt>
			<trkpt lat="38.644165151810661" lon="-0.4680780960161354">
				<ele>785.1359999999986</ele>
			</trkpt>
			<trkpt lat="38.644079031464344" lon="-0.4682294387852983">
				<ele>785.51570000000356</ele>
			</trkpt>
			<trkpt lat="38.644026536205523" lon="-0.4683354714298628">
				<ele>785.335699999996</ele>
			</trkpt>
			<trkpt lat="38.643966859812409" lon="-0.4684650453247631">
				<ele>785.51219999999739</ele>
			</trkpt>
			<trkpt lat="38.643907177756589" lon="-0.4686387444664237">
				<ele>786.21140000000014</ele>
			</trkpt>
			<trkpt lat="38.643856357846616" lon="-0.4687778117572166">
				<ele>786.04339999999502</ele>
			</trkpt>
			<trkpt lat="38.643815117160131" lon="-0.4689153150811296">
				<ele>786.31630000000587</ele>
			</trkpt>
			<trkpt lat="38.643764158965062" lon="-0.4690923847017331">
				<ele>786.2786999999953</ele>
			</trkpt>
			<trkpt lat="38.643739729833904" lon="-0.4692072343108091">
				<ele>786.88009999999485</ele>
			</trkpt>
			<trkpt lat="38.643723971362995" lon="-0.4693230046930434">
				<ele>786.7728999999963</ele>
			</trkpt>
			<trkpt lat="38.643707279728616" lon="-0.4694400327166806">
				<ele>787.04349999999977</ele>
			</trkpt>
			<trkpt lat="38.64369343668465" lon="-0.4695998609720596">
				<ele>787.15899999999965</ele>
			</trkpt>
			<trkpt lat="38.643671259743741" lon="-0.4698188154410957">
				<ele>787.90750000000116</ele>
			</trkpt>
			<trkpt lat="38.643594121711409" lon="-0.4703853487548027">
				<ele>788.79420000000391</ele>
			</trkpt>
			<trkpt lat="38.643563557509452" lon="-0.4706609797317447">
				<ele>789.3579000000027</ele>
			</trkpt>
			<trkpt lat="38.643532521801966" lon="-0.4708704390082273">
				<ele>789.78650000000198</ele>
			</trkpt>
			<trkpt lat="38.643394270520787" lon="-0.4719894550862736">
				<ele>791.85980000000563</ele>
			</trkpt>
			<trkpt lat="38.643363464172161" lon="-0.472254062836366">
				<ele>792.5908999999956</ele>
			</trkpt>
			<trkpt lat="38.643294455573724" lon="-0.472797017170526">
				<ele>793.86530000000494</ele>
			</trkpt>
			<trkpt lat="38.643232581771514" lon="-0.4732698570983991">
				<ele>794.48149999999441</ele>
			</trkpt>
			<trkpt lat="38.643193656102056" lon="-0.4735592619436029">
				<ele>795.09530000000086</ele>
			</trkpt>
			<trkpt lat="38.643086786686567" lon="-0.4742625880138189">
				<ele>796.9945000000007</ele>
			</trkpt>
			<trkpt lat="38.643063928976495" lon="-0.4744184124779677">
				<ele>797.24400000000605</ele>
			</trkpt>
			<trkpt lat="38.643015215465951" lon="-0.4750988791191447">
				<ele>799.26919999999518</ele>
			</trkpt>
			<trkpt lat="38.642822941697929" lon="-0.4765281867711079">
				<ele>800.91180000000168</ele>
			</trkpt>
			<trkpt lat="38.642534647251694" lon="-0.479077009066073">
				<ele>805.28299999999581</ele>
			</trkpt>
			<trkpt lat="38.642476480238727" lon="-0.4795682141516399">
				<ele>806.48010000000068</ele>
			</trkpt>
			<trkpt lat="38.642336455285644" lon="-0.4806088180851771">
				<ele>808.64590000000317</ele>
			</trkpt>
			<trkpt lat="38.642299158332555" lon="-0.4809300259863887">
				<ele>809.53160000000207</ele>
			</trkpt>
			<trkpt lat="38.642273784297068" lon="-0.4810461278469519">
				<ele>809.48739999999816</ele>
			</trkpt>
			<trkpt lat="38.642203663253504" lon="-0.4814947285335445">
				<ele>810.42720000000554</ele>
			</trkpt>
			<trkpt lat="38.642138391873168" lon="-0.481856136942031">
				<ele>811.23450000000594</ele>
			</trkpt>
			<trkpt lat="38.642090732298271" lon="-0.482098037976691">
				<ele>811.60360000000219</ele>
			</trkpt>
			<trkpt lat="38.641975029683095" lon="-0.4825727464003602">
				<ele>811.47090000000026</ele>
			</trkpt>
			<trkpt lat="38.641907988554188" lon="-0.4828520946059581">
				<ele>807.91079999999783</ele>
			</trkpt>
			<trkpt lat="38.641734553749053" lon="-0.483592337841091">
				<ele>813.46249999999418</ele>
			</trkpt>
			<trkpt lat="38.641562448141514" lon="-0.4844391661847033">
				<ele>816.55659999999625</ele>
			</trkpt>
			<trkpt lat="38.641253047964788" lon="-0.4855175370894451">
				<ele>818.03019999999378</ele>
			</trkpt>
			<trkpt lat="38.64116953846267" lon="-0.4858649793901907">
				<ele>819.23639999999432</ele>
			</trkpt>
			<trkpt lat="38.641055878968437" lon="-0.4864079516906258">
				<ele>820.89849999999569</ele>
			</trkpt>
			<trkpt lat="38.640981611380788" lon="-0.4867093014341679">
				<ele>821.39119999999821</ele>
			</trkpt>
			<trkpt lat="38.640863931123228" lon="-0.487104089441968">
				<ele>821.25789999999688</ele>
			</trkpt>
			<trkpt lat="38.640674426623981" lon="-0.4879141245881629">
				<ele>823.01829999999609</ele>
			</trkpt>
			<trkpt lat="38.640557285434674" lon="-0.4883677217043448">
				<ele>823.148199999996</ele>
			</trkpt>
			<trkpt lat="38.640385052105131" lon="-0.4891431357795039">
				<ele>824.90760000000591</ele>
			</trkpt>
			<trkpt lat="38.640345289215567" lon="-0.4893394014994162">
				<ele>825.15959999999905</ele>
			</trkpt>
			<trkpt lat="38.640296474923346" lon="-0.4896177938975357">
				<ele>825.01799999999639</ele>
			</trkpt>
			<trkpt lat="38.640282862767542" lon="-0.4898232574676289">
				<ele>826.51750000000175</ele>
			</trkpt>
			<trkpt lat="38.640274711610907" lon="-0.4902831580621771">
				<ele>827.55100000000675</ele>
			</trkpt>
			<trkpt lat="38.640288522337364" lon="-0.49052351489286">
				<ele>827.78870000000461</ele>
			</trkpt>
			<trkpt lat="38.640387916968933" lon="-0.4913252954199264">
				<ele>829.91610000000219</ele>
			</trkpt>
			<trkpt lat="38.640376734667555" lon="-0.4912977054626057">
				<ele>829.95729999999458</ele>
			</trkpt>
			<trkpt lat="38.640440784665877" lon="-0.4914688363208646">
				<ele>829.86860000000161</ele>
			</trkpt>
			<trkpt lat="38.64051637473257" lon="-0.4917920402786268">
				<ele>830.73970000000554</ele>
			</trkpt>
			<trkpt lat="38.640550098383194" lon="-0.4919416268413974">
				<ele>832.22939999999653</ele>
			</trkpt>
			<trkpt lat="38.640577598341082" lon="-0.4923345948624449">
				<ele>833.08800000000338</ele>
			</trkpt>
			<trkpt lat="38.640588080359855" lon="-0.4926454802227097">
				<ele>833.82660000000033</ele>
			</trkpt>
			<trkpt lat="38.640654690504597" lon="-0.4929057778560618">
				<ele>836.34540000000561</ele>
			</trkpt>
			<trkpt lat="38.640719527509539" lon="-0.4930834592293888">
				<ele>836.24739999999292</ele>
			</trkpt>
			<trkpt lat="38.640789218488898" lon="-0.493309605610587">
				<ele>836.42250000000058</ele>
			</trkpt>
			<trkpt lat="38.640857719398753" lon="-0.4933023553079134">
				<ele>836.95080000000598</ele>
			</trkpt>
			<trkpt lat="38.640966418535619" lon="-0.4933909687207946">
				<ele>838.96989999999641</ele>
			</trkpt>
			<trkpt lat="38.640707290674825" lon="-0.4944699298186626">
				<ele>840.58310000000347</ele>
			</trkpt>
			<trkpt lat="38.640362405433663" lon="-0.4958193502923825">
				<ele>845.00710000000254</ele>
			</trkpt>
			<trkpt lat="38.639818003287644" lon="-0.4978273760065493">
				<ele>853.31419999999343</ele>
			</trkpt>
			<trkpt lat="38.638694196264119" lon="-0.5019953145830866">
				<ele>863.1475999999966</ele>
			</trkpt>
			<trkpt lat="38.638521264500909" lon="-0.5025651195610894">
				<ele>866.42440000000352</ele>
			</trkpt>
			<trkpt lat="38.638437629724173" lon="-0.5028406894525954">
				<ele>863.62649999999849</ele>
			</trkpt>
			<trkpt lat="38.637891217377202" lon="-0.5026165040936609">
				<ele>868.33689999999478</ele>
			</trkpt>
			<trkpt lat="38.637770157655815" lon="-0.5024845406800812">
				<ele>869.17489999999816</ele>
			</trkpt>
			<trkpt lat="38.637700692489418" lon="-0.5022681113753194">
				<ele>869.91259999999602</ele>
			</trkpt>
			<trkpt lat="38.637715107159039" lon="-0.5022287067753729">
				<ele>869.90080000000307</ele>
			</trkpt>
			<trkpt lat="38.638521264500909" lon="-0.5025651195610894">
				<ele>866.42440000000352</ele>
			</trkpt>
			<trkpt lat="38.638987467669949" lon="-0.5027596712954064">
				<ele>866.93210000000545</ele>
			</trkpt>
			<trkpt lat="38.639608594022626" lon="-0.5030188792723461">
				<ele>868.95470000000205</ele>
			</trkpt>
			<trkpt lat="38.639622075797021" lon="-0.5029357357012246">
				<ele>869.09239999999409</ele>
			</trkpt>
			<trkpt lat="38.639558082603514" lon="-0.5027969235319407">
				<ele>868.64280000000144</ele>
			</trkpt>
			<trkpt lat="38.639070266818479" lon="-0.502458847066333">
				<ele>863.28119999999763</ele>
			</trkpt>
			<trkpt lat="38.638987467669949" lon="-0.5027596712954064">
				<ele>866.93210000000545</ele>
			</trkpt>
			<trkpt lat="38.638549937735419" lon="-0.5043492374957246">
				<ele>863.24009999999544</ele>
			</trkpt>
			<trkpt lat="38.638208332280684" lon="-0.5056790046276464">
				<ele>862.49569999999949</ele>
			</trkpt>
			<trkpt lat="38.637917457434952" lon="-0.5067054870449451">
				<ele>861.82760000000417</ele>
			</trkpt>
			<trkpt lat="38.6376947436219" lon="-0.5075302105443471">
				<ele>861.04679999999644</ele>
			</trkpt>
			<trkpt lat="38.637336198189551" lon="-0.5087827243584822">
				<ele>859.91150000000198</ele>
			</trkpt>
			<trkpt lat="38.637077528738608" lon="-0.5097108062178563">
				<ele>858.98660000000382</ele>
			</trkpt>
			<trkpt lat="38.636935522890646" lon="-0.5102068936469811">
				<ele>858.49770000000717</ele>
			</trkpt>
			<trkpt lat="38.636653647006248" lon="-0.5109412439338547">
				<ele>856.83990000000631</ele>
			</trkpt>
			<trkpt lat="38.636314401440991" lon="-0.5118477805994768">
				<ele>854.90200000000186</ele>
			</trkpt>
			<trkpt lat="38.635906763772702" lon="-0.512946332157046">
				<ele>854.54619999999704</ele>
			</trkpt>
			<trkpt lat="38.635666381855337" lon="-0.5136597759523374">
				<ele>853.96989999999641</ele>
			</trkpt>
			<trkpt lat="38.635415169715749" lon="-0.5142228372774628">
				<ele>852.863400000002</ele>
			</trkpt>
			<trkpt lat="38.634899041201649" lon="-0.5154223666594958">
				<ele>851.87810000000172</ele>
			</trkpt>
			<trkpt lat="38.634324290454629" lon="-0.5167357494189573">
				<ele>846.29690000000119</ele>
			</trkpt>
			<trkpt lat="38.633948018165974" lon="-0.5176969988752634">
				<ele>843.68249999999534</ele>
			</trkpt>
			<trkpt lat="38.633586571313749" lon="-0.5186382760878353">
				<ele>841.19689999999537</ele>
			</trkpt>
			<trkpt lat="38.633226454516276" lon="-0.5194627893814833">
				<ele>838.51069999999891</ele>
			</trkpt>
			<trkpt lat="38.632836046421616" lon="-0.5204779889588045">
				<ele>835.84500000000116</ele>
			</trkpt>
			<trkpt lat="38.632559871437302" lon="-0.521304454291545">
				<ele>833.69100000000617</ele>
			</trkpt>
			<trkpt lat="38.632298420613388" lon="-0.5222860155547218">
				<ele>832.54300000000512</ele>
			</trkpt>
			<trkpt lat="38.631975351274221" lon="-0.5236003586132136">
				<ele>828.67909999999392</ele>
			</trkpt>
			<trkpt lat="38.631332672744293" lon="-0.5262143006814702">
				<ele>821.81479999999283</ele>
			</trkpt>
			<trkpt lat="38.630978645627913" lon="-0.5276901410651147">
				<ele>817.22909999999683</ele>
			</trkpt>
			<trkpt lat="38.630967990275423" lon="-0.5284490845295252">
				<ele>815.69789999999921</ele>
			</trkpt>
			<trkpt lat="38.630979107378558" lon="-0.5300582501727157">
				<ele>813.10610000000452</ele>
			</trkpt>
			<trkpt lat="38.630964962229399" lon="-0.53047206449824">
				<ele>812.53350000000501</ele>
			</trkpt>
			<trkpt lat="38.630922287468827" lon="-0.5307993288410826">
				<ele>812.11729999999807</ele>
			</trkpt>
			<trkpt lat="38.630721375685106" lon="-0.5312195508495029">
				<ele>811.52520000000368</ele>
			</trkpt>
			<trkpt lat="38.629829759474752" lon="-0.5327089279461755">
				<ele>808.02909999999974</ele>
			</trkpt>
			<trkpt lat="38.629742178381058" lon="-0.5328967108748635">
				<ele>807.87480000000505</ele>
			</trkpt>
			<trkpt lat="38.629684987662777" lon="-0.5330785882788658">
				<ele>808.01469999999972</ele>
			</trkpt>
			<trkpt lat="38.629538946771483" lon="-0.5337497690349798">
				<ele>810.56810000000405</ele>
			</trkpt>
			<trkpt lat="38.628871376403474" lon="-0.5366415537323991">
				<ele>807.05629999999655</ele>
			</trkpt>
			<trkpt lat="38.62827434088738" lon="-0.5392634351111029">
				<ele>797.40409999999974</ele>
			</trkpt>
			<trkpt lat="38.627853652830062" lon="-0.5410234530433078">
				<ele>791.06010000000242</ele>
			</trkpt>
			<trkpt lat="38.627657574737491" lon="-0.5418567734199989">
				<ele>788.40720000000147</ele>
			</trkpt>
			<trkpt lat="38.627549425265165" lon="-0.5423369885163757">
				<ele>786.90439999999944</ele>
			</trkpt>
			<trkpt lat="38.627422081854249" lon="-0.542992906895804">
				<ele>783.93850000000384</ele>
			</trkpt>
			<trkpt lat="38.627362489885748" lon="-0.5437875215618239">
				<ele>780.00639999999839</ele>
			</trkpt>
			<trkpt lat="38.627369860021545" lon="-0.545046643383208">
				<ele>779.7667999999976</ele>
			</trkpt>
			<trkpt lat="38.627355865043889" lon="-0.5454701541239021">
				<ele>779.91659999999683</ele>
			</trkpt>
			<trkpt lat="38.627340172447425" lon="-0.5456311501891075">
				<ele>779.8524999999936</ele>
			</trkpt>
			<trkpt lat="38.626823504369511" lon="-0.5458883962454529">
				<ele>780.24580000000424</ele>
			</trkpt>
			<trkpt lat="38.626733715280587" lon="-0.5459836365301887">
				<ele>779.30270000000019</ele>
			</trkpt>
			<trkpt lat="38.62671271701258" lon="-0.5463728882208773">
				<ele>778.15240000000631</ele>
			</trkpt>
			<trkpt lat="38.626703917963802" lon="-0.5466316856677099">
				<ele>777.70840000000317</ele>
			</trkpt>
			<trkpt lat="38.626696580743683" lon="-0.5467906614218766">
				<ele>777.58719999999448</ele>
			</trkpt>
			<trkpt lat="38.626694211498666" lon="-0.5470330960558127">
				<ele>777.51880000000529</ele>
			</trkpt>
			<trkpt lat="38.6266690740568" lon="-0.5485131297752079">
				<ele>776.40679999999702</ele>
			</trkpt>
			<trkpt lat="38.626652493544391" lon="-0.5497325954683248">
				<ele>774.37669999999343</ele>
			</trkpt>
			<trkpt lat="38.626636618328298" lon="-0.5507635092749051">
				<ele>774.47920000000158</ele>
			</trkpt>
			<trkpt lat="38.626612597416326" lon="-0.5517372444153355">
				<ele>771.50740000000224</ele>
			</trkpt>
			<trkpt lat="38.626594875076009" lon="-0.5528346784687157">
				<ele>769.1539000000048</ele>
			</trkpt>
			<trkpt lat="38.626594872970649" lon="-0.5528348581317685">
				<ele>769.1533000000054</ele>
			</trkpt>
			<trkpt lat="38.626587900671048" lon="-0.5538053943714681">
				<ele>767.32429999999295</ele>
			</trkpt>
			<trkpt lat="38.626572673896199" lon="-0.5547742094390958">
				<ele>764.94640000000072</ele>
			</trkpt>
			<trkpt lat="38.626562231233649" lon="-0.5555092307675011">
				<ele>764.55379999999423</ele>
			</trkpt>
			<trkpt lat="38.626543116525369" lon="-0.5561862739291398">
				<ele>762.98450000000594</ele>
			</trkpt>
			<trkpt lat="38.626519278048136" lon="-0.5567329113559325">
				<ele>760.90780000000086</ele>
			</trkpt>
			<trkpt lat="38.626469140584305" lon="-0.5572944527316359">
				<ele>759.67269999999553</ele>
			</trkpt>
			<trkpt lat="38.626393061993511" lon="-0.5577912731860256">
				<ele>759.34840000000258</ele>
			</trkpt>
			<trkpt lat="38.626346442534896" lon="-0.5580957086425641">
				<ele>759.03029999999853</ele>
			</trkpt>
			<trkpt lat="38.626166503730516" lon="-0.5589492276383915">
				<ele>757.3747000000003</ele>
			</trkpt>
			<trkpt lat="38.625921340786569" lon="-0.5598938932962483">
				<ele>754.43919999999343</ele>
			</trkpt>
			<trkpt lat="38.625687653548063" lon="-0.5605851469073716">
				<ele>752.43489999999292</ele>
			</trkpt>
			<trkpt lat="38.625499947648635" lon="-0.5610326714122416">
				<ele>751.76540000000386</ele>
			</trkpt>
			<trkpt lat="38.625326951070804" lon="-0.5614149144471092">
				<ele>751.12209999999322</ele>
			</trkpt>
			<trkpt lat="38.625188513084012" lon="-0.5617413469499728">
				<ele>751.0002999999997</ele>
			</trkpt>
		</trkseg>
	</trk>
</gpx>